KUIPER-00119            
1 65155U 25171Z   26064.58639015  .00006543  00000+0  88522-3 0  9998
2 65155  51.9015 181.3145 0001057 141.5889 218.5148 14.79989654 32205
KUIPER-00120            
1 65762U 25217A   26064.95821392  .00002842  00000+0  40103-3 0  9996
2 65762  51.8983  69.5691 0000329 105.8371 254.2628 14.79993945 24181
KUIPER-00132            
1 65763U 25217B   26064.85368801  .00069520  00000+0  17297-2 0  9990
2 65763  51.8609  22.1219 0005865 331.3843  28.6822 15.39619087 24838
KUIPER-00133            
1 65764U 25217C   26064.24915520 -.00001529  00000+0 -17159-3 0  9995
2 65764  51.9043  72.7545 0002059  15.9257 344.1770 14.79936900 24085
KUIPER-00139            
1 65765U 25217D   26064.98258392  .00009723  00000+0  75644-3 0  9999
2 65765  51.8855  50.7699 0007070 307.8716  52.1615 15.01816263 24453
KUIPER-00142            
1 65766U 25217E   26064.97719833 -.00000891  00000+0 -87942-4 0  9995
2 65766  51.9013  52.0048 0001416 111.4703 248.6410 14.79918138 24438
KUIPER-00145            
1 65767U 25217F   26064.36662298  .00005732  00000+0  78011-3 0  9994
2 65767  51.8997  57.2197 0000850  83.1646 276.9413 14.79943314 24300
KUIPER-00147            
1 65768U 25217G   26064.66788991  .00000723  00000+0  12384-3 0  9993
2 65768  51.8974  58.3821 0001240  71.4369 288.6728 14.79946357 24318
KUIPER-00148            
1 65769U 25217H   26064.96501962  .00001226  00000+0  93469-4 0  9991
2 65769  51.8782  41.9143 0008359 342.5675  17.5011 15.09572701 24575
KUIPER-00150            
1 65770U 25217J   26064.45431870  .00005609  00000+0  76282-3 0  9999
2 65770  51.9005  69.3323 0000701  49.2335 310.8688 14.80008603 24142
KUIPER-00151            
1 65771U 25217K   26064.46257553 -.00004496  00000+0 -56106-3 0  9993
2 65771  51.9023  61.7926 0000861  47.5445 312.5590 14.79938169 24258
KUIPER-00152            
1 65772U 25217L   26064.98252370 -.00001790  00000+0 -20574-3 0  9997
2 65772  51.9005  46.9866 0000703 114.0079 246.0957 14.79946419 24508
KUIPER-00153            
1 65773U 25217M   26064.63607874  .00018588  00000+0  10485-2 0  9993
2 65773  51.8805  46.4134 0010302 311.4382  48.5709 15.13157862 24487
KUIPER-00155            
1 65774U 25217N   26064.59668517  .00021604  00000+0  91638-3 0  9993
2 65774  51.8784  30.8773 0005552 316.7439  43.3105 15.23035957 24699
KUIPER-00156            
1 65775U 25217P   26064.34639964 -.00000185  00000+0  47177-5 0  9994
2 65775  51.9032  44.8293 0000827  84.7028 275.4028 14.79936911 24473
KUIPER-00158            
1 65776U 25217Q   26064.41706663  .00007147  00000+0  95287-3 0  9991
2 65776  51.8966  64.3735 0001083  44.8091 315.2959 14.80491942 24219
KUIPER-00163            
1 65777U 25217R   26064.91668981  .00071728  00000+0  63069-2 0  9995
2 65777  51.8977  63.9862 0001765  46.5652 104.1364 14.95860439  5599
